GLOBALSTAR M045         
1 25676U 99019A   25309.19566123 -.00000068  00000+0  22487-3 0  9996
2 25676  51.9967 263.3630 0000628  70.4244  33.9990 12.27067682210709
GLOBALSTAR M019         
1 25677U 99019B   25309.01466740 -.00000021  00000+0  71716-3 0  9990
2 25677  51.9896  44.1524 0001046 212.9214 318.1160 12.13878992202249
GLOBALSTAR M044         
1 25678U 99019C   25308.61196558 -.00000105  00000+0 -30323-3 0  9996
2 25678  51.9996  14.2011 0005792 310.2782 198.5562 11.90259450188047
GLOBALSTAR M042         
1 25679U 99019D   25308.92906035 -.00000057  00000+0  32849-3 0  9990
2 25679  52.0040  13.6330 0002959 220.6108 310.2338 12.22090211202466
GLOBALSTAR M025         
1 25770U 99031A   25308.98465597 -.00000036  00000+0  97594-3 0  9990
2 25770  51.9792 193.1040 0002953  34.0073 339.2247 11.22557866497520
GLOBALSTAR M049         
1 25771U 99031B   25309.10337894 -.00000093  00000+0 -97585-3 0  9998
2 25771  51.9864 234.6736 0002318 264.0060  96.0473 11.12121302133101
GLOBALSTAR M047         
1 25772U 99031C   25308.99988501 -.00000045  00000+0  67401-3 0  9992
2 25772  51.9819 218.4242 0016426 141.3923 218.8061 11.31930850487054
GLOBALSTAR M052         
1 25773U 99031D   25309.24250227 -.00000086  00000+0 -68037-3 0  9991
2 25773  51.9895 341.0493 0002596  48.2636  30.3178 11.15061436494241
